{
  "links" : {
    "next" : "https://api.nasa.gov/neo/rest/v1/feed?start_date=1996-11-09&end_date=1996-11-09&detailed=true&api_key=t0TVs3DtDT2H8Oy2Zy8m2eVrNsAVKAexjcZXUckd",
    "prev" : "https://api.nasa.gov/neo/rest/v1/feed?start_date=1996-11-07&end_date=1996-11-07&detailed=true&api_key=t0TVs3DtDT2H8Oy2Zy8m2eVrNsAVKAexjcZXUckd",
    "self" : "https://api.nasa.gov/neo/rest/v1/feed?start_date=1996-11-08&end_date=1996-11-08&detailed=true&api_key=t0TVs3DtDT2H8Oy2Zy8m2eVrNsAVKAexjcZXUckd"
  },
  "element_count" : 5,
  "near_earth_objects" : {
    "1996-11-08" : [ {
      "links" : {
        "self" : "https://api.nasa.gov/neo/rest/v1/neo/3761196?api_key=t0TVs3DtDT2H8Oy2Zy8m2eVrNsAVKAexjcZXUckd"
      },
      "neo_reference_id" : "3761196",
      "name" : "(2016 TE93)",
      "nasa_jpl_url" : "http://ssd.jpl.nasa.gov/sbdb.cgi?sstr=3761196",
      "absolute_magnitude_h" : 21.2,
      "estimated_diameter" : {
        "kilometers" : {
          "estimated_diameter_min" : 0.1529519353,
          "estimated_diameter_max" : 0.3420109247
        },
        "meters" : {
          "estimated_diameter_min" : 152.9519353442,
          "estimated_diameter_max" : 342.0109247198
        },
        "miles" : {
          "estimated_diameter_min" : 0.095039897,
          "estimated_diameter_max" : 0.2125156703
        },
        "feet" : {
          "estimated_diameter_min" : 501.8108275547,
          "estimated_diameter_max" : 1122.0831222578
        }
      },
      "is_potentially_hazardous_asteroid" : false,
      "close_approach_data" : [ {
        "close_approach_date" : "1996-11-08",
        "epoch_date_close_approach" : 847440000000,
        "relative_velocity" : {
          "kilometers_per_second" : "12.0993091698",
          "kilometers_per_hour" : "43557.5130113581",
          "miles_per_hour" : "27064.9446819742"
        },
        "miss_distance" : {
          "astronomical" : "0.2426800529",
          "lunar" : "94.4025421143",
          "kilometers" : "36304420",
          "miles" : "22558520"
        },
        "orbiting_body" : "Earth"
      } ],
      "orbital_data" : {
        "orbit_id" : "16",
        "orbit_determination_date" : "2017-08-29 06:19:35",
        "orbit_uncertainty" : "2",
        "minimum_orbit_intersection" : ".150454",
        "jupiter_tisserand_invariant" : "5.836",
        "epoch_osculation" : "2458000.5",
        "eccentricity" : ".1757576252161147",
        "semi_major_axis" : "1.035272332954641",
        "inclination" : "22.73246377016405",
        "ascending_node_longitude" : "214.2574778900386",
        "orbital_period" : "384.7515151187496",
        "perihelion_distance" : ".8533153262625865",
        "perihelion_argument" : "353.2022011640011",
        "aphelion_distance" : "1.217229339646695",
        "perihelion_time" : "2457865.504480731404",
        "mean_anomaly" : "126.3110995721358",
        "mean_motion" : ".9356688300210845",
        "equinox" : "J2000"
      }
    }, {
      "links" : {
        "self" : "https://api.nasa.gov/neo/rest/v1/neo/3763275?api_key=t0TVs3DtDT2H8Oy2Zy8m2eVrNsAVKAexjcZXUckd"
      },
      "neo_reference_id" : "3763275",
      "name" : "(2016 VZ)",
      "nasa_jpl_url" : "http://ssd.jpl.nasa.gov/sbdb.cgi?sstr=3763275",
      "absolute_magnitude_h" : 25.9,
      "estimated_diameter" : {
        "kilometers" : {
          "estimated_diameter_min" : 0.0175612318,
          "estimated_diameter_max" : 0.0392681082
        },
        "meters" : {
          "estimated_diameter_min" : 17.561231848,
          "estimated_diameter_max" : 39.2681081809
        },
        "miles" : {
          "estimated_diameter_min" : 0.0109120402,
          "estimated_diameter_max" : 0.0244000636
        },
        "feet" : {
          "estimated_diameter_min" : 57.6155918963,
          "estimated_diameter_max" : 128.8323800441
        }
      },
      "is_potentially_hazardous_asteroid" : false,
      "close_approach_data" : [ {
        "close_approach_date" : "1996-11-08",
        "epoch_date_close_approach" : 847440000000,
        "relative_velocity" : {
          "kilometers_per_second" : "12.9101146802",
          "kilometers_per_hour" : "46476.4128486746",
          "miles_per_hour" : "28878.6355281112"
        },
        "miss_distance" : {
          "astronomical" : "0.1046275661",
          "lunar" : "40.7001228333",
          "kilometers" : "15652061",
          "miles" : "9725740"
        },
        "orbiting_body" : "Earth"
      } ],
      "orbital_data" : {
        "orbit_id" : "7",
        "orbit_determination_date" : "2017-04-06 08:22:30",
        "orbit_uncertainty" : "6",
        "minimum_orbit_intersection" : ".00794797",
        "jupiter_tisserand_invariant" : "5.871",
        "epoch_osculation" : "2458000.5",
        "eccentricity" : ".3248996908406564",
        "semi_major_axis" : "1.034555126707821",
        "inclination" : "4.181620160743995",
        "ascending_node_longitude" : "44.14761718469538",
        "orbital_period" : "384.3517675586699",
        "perihelion_distance" : ".6984284858828337",
        "perihelion_argument" : "107.8931966002987",
        "aphelion_distance" : "1.370681767532808",
        "perihelion_time" : "2458157.759534079291",
        "mean_anomaly" : "212.7041188644909",
        "mean_motion" : ".9366419784840648",
        "equinox" : "J2000"
      }
    } ]
  }
}